QIANFAN-97              
1 66039U 25233G   25361.02552377  .00000037  00000+0  30795-4 0  9994
2 66039  88.9945  60.6545 0015164   7.1428 352.9944 13.63443828  9933
QIANFAN-98              
1 66040U 25233H   25361.40424843  .00000047  00000+0  31738-4 0  9993
2 66040  88.9940  60.5086 0014414   2.8330 357.2918 13.82580046 10048
QIANFAN-99              
1 66041U 25233J   25361.41370867  .00000027  00000+0  20467-4 0  9996
2 66041  88.9946  60.6186 0014685   4.4411 355.6872 13.59281218  9980
QIANFAN-100             
1 66042U 25233K   25361.00772545  .00000019  00000+0  64573-5 0  9999
2 66042  88.9929  60.5635 0010447  10.1891 349.9482 13.71950582  9971
QIANFAN-101             
1 66043U 25233L   25361.46525796  .00000247  00000+0  96300-4 0  9999
2 66043  88.9947  60.3335 0014244 356.0993   4.0087 14.26684220 10146
QIANFAN-102             
1 66044U 25233M   25361.45461023  .00000036  00000+0  27984-4 0  9999
2 66044  88.9947  60.5896 0014546   4.2939 355.8343 13.66799724 10004
QIANFAN-103             
1 66045U 25233N   25361.49144823  .00000033  00000+0  27459-4 0  9994
2 66045  88.9965  60.6144 0015640   2.8682 357.2561 13.61341312  9992
QIANFAN-104             
1 66046U 25233P   25361.45816546  .00000166  00000+0  17037-3 0  9996
2 66046  88.9950  60.5915 0014019   8.0493 352.0892 13.71544955 10002
